{
  "type": "FeatureCollection",
  "features": [
    {
      "type": "Feature",
      "properties": {
        "norad_id": 54741,
        "name": "GALAXY 35 (G-35)",
        "group": "intelsat",
        "lat": 0.04083367681172524,
        "lon": 52.28578021705636,
        "alt_km": 35797.31748416911,
        "timestamp": "2025-12-03T04:52:29.309497+00:00",
        "meta_object_name": "GALAXY 35 (G-35)",
        "meta_object_id": "2022-170A",
        "meta_epoch": "2025-12-02T13:20:35.064960",
        "meta_mean_motion": 1.00269337,
        "meta_eccentricity": 0.00028145,
        "meta_inclination": 0.0165,
        "meta_ra_of_asc_node": 322.8151,
        "meta_arg_of_pericenter": 297.5773,
        "meta_mean_anomaly": 278.2964,
        "meta_ephemeris_type": 0,
        "meta_classification_type": "U",
        "meta_norad_cat_id": 54741,
        "meta_element_set_no": 999,
        "meta_rev_at_epoch": 1092,
        "meta_bstar": 0,
        "meta_mean_motion_dot": 0,
        "meta_mean_motion_ddot": 0,
        "tle_line1": "1 54741U 22170A   25336.55596140  .00000000  00000+0  00000+0 0  9995",
        "tle_line2": "2 54741   0.0165 322.8151 0002814 297.5773 278.2964  1.00269337 10923"
      },
      "geometry": {
        "type": "Point",
        "coordinates": [
          52.28578021705636,
          0.04083367681172524
        ]
      }
    },
    {
      "type": "Feature",
      "properties": {
        "norad_id": 54742,
        "name": "GALAXY 36 (G-36)",
        "group": "intelsat",
        "lat": 0.024197536243846934,
        "lon": 56.39712069059653,
        "alt_km": 35788.80921577464,
        "timestamp": "2025-12-03T04:52:29.309508+00:00",
        "meta_object_name": "GALAXY 36 (G-36)",
        "meta_object_id": "2022-170B",
        "meta_epoch": "2025-12-02T15:04:22.992960",
        "meta_mean_motion": 1.00270549,
        "meta_eccentricity": 5.63e-05,
        "meta_inclination": 0.0186,
        "meta_ra_of_asc_node": 261.3876,
        "meta_arg_of_pericenter": 345.0458,
        "meta_mean_anomaly": 322.3984,
        "meta_ephemeris_type": 0,
        "meta_classification_type": "U",
        "meta_norad_cat_id": 54742,
        "meta_element_set_no": 999,
        "meta_rev_at_epoch": 1080,
        "meta_bstar": 0,
        "meta_mean_motion_dot": -1.65e-06,
        "meta_mean_motion_ddot": 0,
        "tle_line1": "1 54742U 22170B   25336.62804390 -.00000165  00000+0  00000+0 0  9996",
        "tle_line2": "2 54742   0.0186 261.3876 0000563 345.0458 322.3984  1.00270549 10803"
      },
      "geometry": {
        "type": "Point",
        "coordinates": [
          56.39712069059653,
          0.024197536243846934
        ]
      }
    },
    {
      "type": "Feature",
      "properties": {
        "norad_id": 57493,
        "name": "GALAXY 37 (G-37)",
        "group": "intelsat",
        "lat": 0.03889034992266253,
        "lon": 18.430483439213194,
        "alt_km": 35791.001473549775,
        "timestamp": "2025-12-03T04:52:29.309520+00:00",
        "meta_object_name": "GALAXY 37 (G-37)",
        "meta_object_id": "2023-112A",
        "meta_epoch": "2025-12-02T16:36:20.199744",
        "meta_mean_motion": 1.0027293,
        "meta_eccentricity": 0.0002441,
        "meta_inclination": 0.0171,
        "meta_ra_of_asc_node": 297.5198,
        "meta_arg_of_pericenter": 320.2783,
        "meta_mean_anomaly": 296.0905,
        "meta_ephemeris_type": 0,
        "meta_classification_type": "U",
        "meta_norad_cat_id": 57493,
        "meta_element_set_no": 999,
        "meta_rev_at_epoch": 857,
        "meta_bstar": 0,
        "meta_mean_motion_dot": 6.8e-07,
        "meta_mean_motion_ddot": 0,
        "tle_line1": "1 57493U 23112A   25336.69190046  .00000068  00000+0  00000+0 0  9993",
        "tle_line2": "2 57493   0.0171 297.5198 0002441 320.2783 296.0905  1.00272930  8571"
      },
      "geometry": {
        "type": "Point",
        "coordinates": [
          18.430483439213194,
          0.03889034992266253
        ]
      }
    }
  ]
}